GSAT-9                  
1 42695U 17024A   26171.41126538 -.00000290  00000+0  00000+0 0  9997
2 42695   0.0153  66.8126 0002519  18.5927  68.5717  1.00267932 33331
INMARSAT 5-F4           
1 42698U 17025A   26171.40325053  .00000071  00000+0  00000+0 0  9999
2 42698   0.0186  19.3734 0000687 350.8599 100.0381  1.00271389 33317
SES-15                  
1 42709U 17026A   26171.39489199  .00000056  00000+0  00000+0 0  9996
2 42709   0.0195 339.4234 0000441  78.9236 223.2436  1.00268923  7461
QZS-2 (MICHIBIKI-2)     
1 42738U 17028A   26170.47837747 -.00000184  00000+0  00000+0 0  9997
2 42738  39.4240 243.1214 0758837 269.2922  69.3071  1.00283355  7645
VIASAT-2                
1 42740U 17029A   26171.37820375 -.00000270  00000+0  00000+0 0  9996
2 42740   0.0166 300.6474 0000207  83.9333 310.2681  1.00271244 33237
GSAT-19                 
1 42747U 17031A   26171.25890353  .00000121  00000+0  00000+0 0  9990
2 42747   0.0306 265.2288 0007006 166.6198 337.7028  1.00269785 33170
ECHOSTAR 21             
1 42749U 17032A   26171.32244802  .00000060  00000+0  00000+0 0  9995
2 42749   1.7707 355.9620 0002217  95.2291 303.6824  1.00271322 33134
BULGARIASAT-1           
1 42801U 17038A   26171.24980350  .00000006  00000+0  00000+0 0  9996
2 42801   0.0130  56.6185 0003251  40.0092 263.6515  1.00273622 32879
HELLAS-SAT 3            
1 42814U 17040A   26171.25717021  .00000147  00000+0  00000+0 0  9993
2 42814   0.0557  51.9435 0004753   3.8594 344.2326  1.00273106 32833
GSAT-17                 
1 42815U 17040B   26171.05407052 -.00000263  00000+0  00000+0 0  9992
2 42815   0.0164  37.4340 0001849 268.9951  74.7820  1.00270770 32812
INTELSAT 35E (IS-35E)   
1 42818U 17041A   26171.38513712 -.00000242  00000+0  00000+0 0  9990
2 42818   0.0180  23.6269 0002053  67.1464 281.9730  1.00272940 32842
COSMOS 2520             
1 42907U 17046A   26171.25829686  .00000132  00000+0  00000+0 0  9997
2 42907   0.0458  95.4065 0000868  28.4578 282.5989  1.00272047 32423
TDRS 13                 
1 42915U 17047A   26171.38973046 -.00000105  00000+0  00000+0 0  9992
2 42915   3.4525   2.8357 0014653 106.4266 288.2031  1.00271929 32382
QZS-3 (MICHIBIKI-3)     
1 42917U 17048A   26171.48424844 -.00000352  00000+0  00000+0 0  9997
2 42917   0.0575 161.6136 0001992 282.9218 125.4966  1.00274667 32291
AMAZONAS 5              
1 42934U 17053A   26171.12497531 -.00000288  00000+0  00000+0 0  9994
2 42934   0.0322 325.1798 0001971  73.4746 213.6749  1.00272263 32072
ASIASAT 9               
1 42942U 17057A   26172.23586286  .00000000  00000+0  00000+0 0  9997
2 42942   0.0418  51.2413 0002542  27.7813  37.4783  1.00262831 31901
INTELSAT 37E (IS-37E)   
1 42950U 17059A   26171.38843046 -.00000145  00000+0  00000+0 0  9994
2 42950   0.0188  18.2553 0002602  94.8556 277.3301  1.00271079 32094
BSAT-4A                 
1 42951U 17059B   26170.99838896 -.00000355  00000+0  00000+0 0  9991
2 42951   0.0337 353.9231 0004056  76.8596 306.6773  1.00270250 31821
QZS-4 (MICHIBIKI-4)     
1 42965U 17062A   26169.35012919 -.00000360  00000+0  00000+0 0  9994
2 42965  40.1070 343.4662 0745019 271.8091 274.2172  1.00250086 31812
SES-11 (ECHOSTAR 105)   
1 42967U 17063A   26171.36003124 -.00000094  00000+0  00000+0 0  9993
2 42967   0.0149   3.9068 0002813  71.1261 218.1920  1.00271096 31757
KOREASAT 5A             
1 42984U 17067A   26171.41438541 -.00000363  00000+0  00000+0 0  9996
2 42984   0.0149 314.4364 0000645 107.1090 109.4054  1.00273371 31563
ALCOMSAT 1              
1 43039U 17078A   26171.38704380 -.00000191  00000+0  00000+0 0  9992
2 43039   0.0229 269.2124 0002328 172.6670 301.2401  1.00272414 31325
SBIRS GEO-3 (USA 282)   
1 43162U 18009A   26171.39700601  .00000123  00000+0  00000+0 0  9991
2 43162   2.1865  12.2926 0001981  68.2374 171.5933  1.00271852 30874
AL YAH 3                
1 43174U 18012A   26171.38799713 -.00000160  00000+0  00000+0 0  9991
2 43174   1.5612  83.0720 0003880   3.9994 301.0809  1.00272206 30878
SES-14                  
1 43175U 18012B   26171.16863694 -.00000283  00000+0  00000+0 0  9994
2 43175   0.0176  27.7377 0001235  43.1327 210.7211  1.00279470  7056
GOES 17                 
1 43226U 18022A   26171.38933449 -.00000187  00000+0  00000+0 0  9995
2 43226   0.9463  85.6559 0000598  28.1563 205.4138  1.00269480 30451
HISPASAT 30W-6          
1 43228U 18023A   26171.06481344 -.00000221  00000+0  00000+0 0  9994
2 43228   0.0445  43.1237 0005760  29.8638 188.6152  1.00271051 30436
SUPERBIRD-B3            
1 43271U 18033A   26171.37822667 -.00000097  00000+0  00000+0 0  9995
2 43271   0.0262 290.7153 0001175 169.2877 106.7514  1.00270639 30094
HYLAS 4                 
1 43272U 18033B   26171.02887554 -.00000239  00000+0  00000+0 0  9992
2 43272   0.0189  20.7021 0001123  65.0638 159.3513  1.00271055 30095
